{
    "type": "FeatureCollection",
    "features": [
      {
        "type": "Feature",
        "properties": {
          "name": "Phường Bình Phú",
          "description": "Phường Bình Phú<br><br>Tên ĐVHC: Phường Bình Phú<br>DT (km²): 2.86<br>Dân số (người): 75925<br>Tên các quận cũ: Quận 6, Quận 8",
          "styleUrl": "#poly-FBC02D-4501-0"
        },
        "geometry": {
          "type": "Polygon",
          "coordinates": [
            [
              [
                106.6398133,
                10.749213,
                0.0
              ],
              [
                106.6240594,
                10.7453275,
                0.0
              ],
              [
                106.6231702,
                10.7452142,
                0.0
              ],
              [
                106.6231027,
                10.7447912,
                0.0
              ],
              [
                106.6230471,
                10.7446055,
                0.0
              ],
              [
                106.6228905,
                10.7444448,
                0.0
              ],
              [
                106.6229527,
                10.7443923,
                0.0
              ],
              [
                106.622922,
                10.7441723,
                0.0
              ],
              [
                106.6228535,
                10.7442118,
                0.0
              ],
              [
                106.6227999,
                10.7440958,
                0.0
              ],
              [
                106.6227382,
                10.7440511,
                0.0
              ],
              [
                106.6224233,
                10.7431413,
                0.0
              ],
              [
                106.6221339,
                10.7423514,
                0.0
              ],
              [
                106.6219066,
                10.7417861,
                0.0
              ],
              [
                106.6218127,
                10.7415667,
                0.0
              ],
              [
                106.6217669,
                10.741386,
                0.0
              ],
              [
                106.6217693,
                10.7410481,
                0.0
              ],
              [
                106.6219175,
                10.7401297,
                0.0
              ],
              [
                106.6220422,
                10.7390571,
                0.0
              ],
              [
                106.6222506,
                10.7390842,
                0.0
              ],
              [
                106.6222855,
                10.7387258,
                0.0
              ],
              [
                106.6222184,
                10.7387126,
                0.0
              ],
              [
                106.6218868,
                10.7375422,
                0.0
              ],
              [
                106.6216619,
                10.7366612,
                0.0
              ],
              [
                106.6214285,
                10.7356914,
                0.0
              ],
              [
                106.6213167,
                10.7351405,
                0.0
              ],
              [
                106.6211746,
                10.7346029,
                0.0
              ],
              [
                106.6211209,
                10.7341865,
                0.0
              ],
              [
                106.6209211,
                10.7324456,
                0.0
              ],
              [
                106.620791,
                10.7313178,
                0.0
              ],
              [
                106.6205872,
                10.7298209,
                0.0
              ],
              [
                106.6203984,
                10.7280118,
                0.0
              ],
              [
                106.6203179,
                10.7272423,
                0.0
              ],
              [
                106.6201999,
                10.7264728,
                0.0
              ],
              [
                106.6255557,
                10.7293254,
                0.0
              ],
              [
                106.6275095,
                10.7304249,
                0.0
              ],
              [
                106.6276388,
                10.730018,
                0.0
              ],
              [
                106.6293208,
                10.7308792,
                0.0
              ],
              [
                106.6310255,
                10.7318527,
                0.0
              ],
              [
                106.6331942,
                10.7330818,
                0.0
              ],
              [
                106.6343901,
                10.7337127,
                0.0
              ],
              [
                106.6343494,
                10.7342777,
                0.0
              ],
              [
                106.6343656,
                10.7345859,
                0.0
              ],
              [
                106.6344192,
                10.734802,
                0.0
              ],
              [
                106.6345426,
                10.7351762,
                0.0
              ],
              [
                106.6348171,
                10.735757,
                0.0
              ],
              [
                106.6347957,
                10.7361734,
                0.0
              ],
              [
                106.6345864,
                10.736711,
                0.0
              ],
              [
                106.6343413,
                10.73729,
                0.0
              ],
              [
                106.6341321,
                10.737875,
                0.0
              ],
              [
                106.6340409,
                10.7382597,
                0.0
              ],
              [
                106.633998,
                10.7387393,
                0.0
              ],
              [
                106.6340136,
                10.7393351,
                0.0
              ],
              [
                106.6341209,
                10.7399992,
                0.0
              ],
              [
                106.6342926,
                10.7405262,
                0.0
              ],
              [
                106.634534,
                10.7409637,
                0.0
              ],
              [
                106.6347969,
                10.7413273,
                0.0
              ],
              [
                106.6351424,
                10.7417099,
                0.0
              ],
              [
                106.6357754,
                10.7422158,
                0.0
              ],
              [
                106.6374579,
                10.7434503,
                0.0
              ],
              [
                106.6388803,
                10.7445285,
                0.0
              ],
              [
                106.6394516,
                10.7450133,
                0.0
              ],
              [
                106.6398663,
                10.7454455,
                0.0
              ],
              [
                106.639979,
                10.7456668,
                0.0
              ],
              [
                106.6400648,
                10.7459145,
                0.0
              ],
              [
                106.6400863,
                10.746157,
                0.0
              ],
              [
                106.6400219,
                10.7468105,
                0.0
              ],
              [
                106.6399635,
                10.7476108,
                0.0
              ],
              [
                106.6398937,
                10.7485543,
                0.0
              ],
              [
                106.6398133,
                10.749213,
                0.0
              ]
            ]
          ]
        }
      },
      {
        "type": "Feature",
        "properties": {
          "name": "Khu phố 1",
          "description": "Diện tích: 8,49 ha;<br>Số hộ: 1.181 hộ;<br>Gộp KP 1 và KP 2 (cũ)",
          "styleUrl": "#poly-EDA29B-4901-130"
        },
        "geometry": {
          "type": "Polygon",
          "coordinates": [
            [
              [
                106.6374906,
                10.7457549,
                0.0
              ],
              [
                106.637563,
                10.7454308,
                0.0
              ],
              [
                106.6376462,
                10.7452885,
                0.0
              ],
              [
                106.6384689,
                10.7442256,
                0.0
              ],
              [
                106.6390879,
                10.7447235,
                0.0
              ],
              [
                106.6398336,
                10.7454297,
                0.0
              ],
              [
                106.639979,
                10.7456668,
                0.0
              ],
              [
                106.6400648,
                10.7459145,
                0.0
              ],
              [
                106.6400863,
                10.746157,
                0.0
              ],
              [
                106.6398133,
                10.749213,
                0.0
              ],
              [
                106.6382709,
                10.7488332,
                0.0
              ],
              [
                106.6383681,
                10.7484129,
                0.0
              ],
              [
                106.6384364,
                10.7484262,
                0.0
              ],
              [
                106.6385302,
                10.7480559,
                0.0
              ],
              [
                106.6385115,
                10.7476778,
                0.0
              ],
              [
                106.6386241,
                10.7466816,
                0.0
              ],
              [
                106.6386295,
                10.7458595,
                0.0
              ],
              [
                106.6385383,
                10.7458701,
                0.0
              ],
              [
                106.6374906,
                10.7457549,
                0.0
              ]
            ]
          ]
        }
      },
      {
        "type": "Feature",
        "properties": {
          "name": "Khu phố 2",
          "description": "Diện tích: 6,57 ha;<br>Số hộ: 1.552 hộ;<br>Gộp KP 3 và KP 4 (cũ)",
          "styleUrl": "#poly-FFEA00-4801-130"
        },
        "geometry": {
          "type": "Polygon",
          "coordinates": [
            [
              [
                106.6366339,
                10.7484209,
                0.0
              ],
              [
                106.6368378,
                10.7476514,
                0.0
              ],
              [
                106.6368163,
                10.7456856,
                0.0
              ],
              [
                106.6385383,
                10.7458701,
                0.0
              ],
              [
                106.6386295,
                10.7458595,
                0.0
              ],
              [
                106.6386241,
                10.7466816,
                0.0
              ],
              [
                106.6385115,
                10.7476778,
                0.0
              ],
              [
                106.6385302,
                10.7480559,
                0.0
              ],
              [
                106.6384364,
                10.7484262,
                0.0
              ],
              [
                106.6383681,
                10.7484129,
                0.0
              ],
              [
                106.6382709,
                10.7488332,
                0.0
              ],
              [
                106.6366339,
                10.7484209,
                0.0
              ]
            ]
          ]
        }
      },
      {
        "type": "Feature",
        "properties": {
          "name": "Khu phố 3",
          "description": "Diện tích: 19,37 ha;<br>Số hộ: 1.465 hộ;<br>Gộp KP 5 và KP 6 (cũ).",
          "styleUrl": "#poly-C5E1A5-4801-105"
        },
        "geometry": {
          "type": "Polygon",
          "coordinates": [
            [
              [
                106.6336129,
                10.7410128,
                0.0
              ],
              [
                106.634408,
                10.7407936,
                0.0
              ],
              [
                106.6346386,
                10.7411678,
                0.0
              ],
              [
                106.6347728,
                10.7413207,
                0.0
              ],
              [
                106.6351424,
                10.7417099,
                0.0
              ],
              [
                106.6355233,
                10.7420261,
                0.0
              ],
              [
                106.6384689,
                10.7442256,
                0.0
              ],
              [
                106.6380106,
                10.7448203,
                0.0
              ],
              [
                106.637563,
                10.7454308,
                0.0
              ],
              [
                106.6374906,
                10.7457549,
                0.0
              ],
              [
                106.6368163,
                10.7456856,
                0.0
              ],
              [
                106.6368378,
                10.7476514,
                0.0
              ],
              [
                106.6366339,
                10.7484209,
                0.0
              ],
              [
                106.6352312,
                10.7480717,
                0.0
              ],
              [
                106.6346491,
                10.7427331,
                0.0
              ],
              [
                106.6337471,
                10.741445,
                0.0
              ],
              [
                106.6336129,
                10.7410128,
                0.0
              ]
            ]
          ]
        }
      },
      {
        "type": "Feature",
        "properties": {
          "name": "Khu phố 4",
          "description": "Diện tích: 30,77 ha;<br>Số hộ: 1.190 hộ;<br>Gộp KP 7 và KP 8 (cũ).",
          "styleUrl": "#poly-AFB42B-5001-156"
        },
        "geometry": {
          "type": "Polygon",
          "coordinates": [
            [
              [
                106.6336129,
                10.7410128,
                0.0
              ],
              [
                106.6337471,
                10.741445,
                0.0
              ],
              [
                106.6346491,
                10.7427331,
                0.0
              ],
              [
                106.6352312,
                10.7480717,
                0.0
              ],
              [
                106.6314252,
                10.7471442,
                0.0
              ],
              [
                106.6298555,
                10.7417933,
                0.0
              ],
              [
                106.6323205,
                10.741427,
                0.0
              ],
              [
                106.6336129,
                10.7410128,
                0.0
              ]
            ]
          ]
        }
      },
      {
        "type": "Feature",
        "properties": {
          "name": "Khu phố 5",
          "description": "Diện tích: 12,16 ha;<br>Số hộ: 1.100 hộ;<br>Gộp 1p KP 9 và 1p KP 11 (cũ).",
          "styleUrl": "#poly-87CEAC-5201-112"
        },
        "geometry": {
          "type": "Polygon",
          "coordinates": [
            [
              [
                106.6314252,
                10.7471442,
                0.0
              ],
              [
                106.6289037,
                10.7465098,
                0.0
              ],
              [
                106.6286623,
                10.7447073,
                0.0
              ],
              [
                106.6281902,
                10.7420615,
                0.0
              ],
              [
                106.6298555,
                10.7417933,
                0.0
              ],
              [
                106.6309128,
                10.7453355,
                0.0
              ],
              [
                106.6314252,
                10.7471442,
                0.0
              ]
            ]
          ]
        }
      },
      {
        "type": "Feature",
        "properties": {
          "name": "Khu phố 6",
          "description": "Diện tích: 15,48 ha;<br>Số hộ: 1.069 hộ;<br>Gộp KP 10, 1p KP 9 và 1p KP 11 (cũ).",
          "styleUrl": "#poly-B2EBF2-4501-128"
        },
        "geometry": {
          "type": "Polygon",
          "coordinates": [
            [
              [
                106.6256337,
                10.7457094,
                0.0
              ],
              [
                106.6256135,
                10.7449373,
                0.0
              ],
              [
                106.6253131,
                10.7419016,
                0.0
              ],
              [
                106.6281902,
                10.7420615,
                0.0
              ],
              [
                106.6286712,
                10.7447687,
                0.0
              ],
              [
                106.6289037,
                10.7465098,
                0.0
              ],
              [
                106.6256337,
                10.7457094,
                0.0
              ]
            ]
          ]
        }
      },
      {
        "type": "Feature",
        "properties": {
          "name": "Khu phố 7",
          "description": "Diện tích: 25,36 ha;<br>Số hộ: 1.514 hộ;<br>Gộp KP 12 và KP 18 (cũ).",
          "styleUrl": "#poly-CE93D8-4801-130"
        },
        "geometry": {
          "type": "Polygon",
          "coordinates": [
            [
              [
                106.6253131,
                10.7419016,
                0.0
              ],
              [
                106.6256135,
                10.7449373,
                0.0
              ],
              [
                106.6256337,
                10.7457094,
                0.0
              ],
              [
                106.6240594,
                10.7453275,
                0.0
              ],
              [
                106.6231702,
                10.7452142,
                0.0
              ],
              [
                106.6231055,
                10.744813,
                0.0
              ],
              [
                106.6230471,
                10.7446055,
                0.0
              ],
              [
                106.6228905,
                10.7444448,
                0.0
              ],
              [
                106.6229527,
                10.7443923,
                0.0
              ],
              [
                106.622922,
                10.7441723,
                0.0
              ],
              [
                106.6228535,
                10.7442118,
                0.0
              ],
              [
                106.6227999,
                10.7440958,
                0.0
              ],
              [
                106.6227382,
                10.7440511,
                0.0
              ],
              [
                106.6223077,
                10.7428221,
                0.0
              ],
              [
                106.6218396,
                10.7416299,
                0.0
              ],
              [
                106.6217699,
                10.7414191,
                0.0
              ],
              [
                106.6217752,
                10.741008,
                0.0
              ],
              [
                106.6219221,
                10.740051,
                0.0
              ],
              [
                106.6220422,
                10.7390571,
                0.0
              ],
              [
                106.6222506,
                10.7390842,
                0.0
              ],
              [
                106.6222855,
                10.7387258,
                0.0
              ],
              [
                106.6253265,
                10.7391264,
                0.0
              ],
              [
                106.6253131,
                10.7419016,
                0.0
              ]
            ]
          ]
        }
      },
      {
        "type": "Feature",
        "properties": {
          "name": "Khu phố 8",
          "description": "Diện tích: 17,46 ha;<br>Số hộ: 1.643 hộ;<br>Gộp KP 16 và KP 17 (cũ).",
          "styleUrl": "#poly-EDA29B-5201-133"
        },
        "geometry": {
          "type": "Polygon",
          "coordinates": [
            [
              [
                106.6298555,
                10.7417933,
                0.0
              ],
              [
                106.6281902,
                10.7420615,
                0.0
              ],
              [
                106.6253131,
                10.7419016,
                0.0
              ],
              [
                106.6253265,
                10.7391264,
                0.0
              ],
              [
                106.6287894,
                10.7378091,
                0.0
              ],
              [
                106.6292292,
                10.7392532,
                0.0
              ],
              [
                106.6294975,
                10.7405076,
                0.0
              ],
              [
                106.6298555,
                10.7417933,
                0.0
              ]
            ]
          ]
        }
      },
      {
        "type": "Feature",
        "properties": {
          "name": "Khu phố 9",
          "description": "Diện tích: 9,04 ha;<br>Số hộ: 1.063 hộ;<br>Gộp KP 15 và 1p KP 14 (cũ).",
          "styleUrl": "#poly-FADA80-4001-105"
        },
        "geometry": {
          "type": "Polygon",
          "coordinates": [
            [
              [
                106.6323205,
                10.741427,
                0.0
              ],
              [
                106.6298555,
                10.7417933,
                0.0
              ],
              [
                106.6294975,
                10.7405076,
                0.0
              ],
              [
                106.6292292,
                10.7392532,
                0.0
              ],
              [
                106.631713,
                10.7383002,
                0.0
              ],
              [
                106.6319275,
                10.7399551,
                0.0
              ],
              [
                106.6323205,
                10.741427,
                0.0
              ]
            ]
          ]
        }
      },
      {
        "type": "Feature",
        "properties": {
          "name": "Khu phố 10",
          "description": "Diện tích: 19,17 ha;<br>Số hộ: 1.082 hộ;<br>Gộp KP 13 và 1p KP 14 (cũ).",
          "styleUrl": "#poly-9FA8DA-5001-117"
        },
        "geometry": {
          "type": "Polygon",
          "coordinates": [
            [
              [
                106.6287894,
                10.7378091,
                0.0
              ],
              [
                106.6337853,
                10.7359735,
                0.0
              ],
              [
                106.6348171,
                10.735757,
                0.0
              ],
              [
                106.6347957,
                10.7361734,
                0.0
              ],
              [
                106.6343413,
                10.73729,
                0.0
              ],
              [
                106.6341179,
                10.7379078,
                0.0
              ],
              [
                106.633998,
                10.7387393,
                0.0
              ],
              [
                106.6340136,
                10.7393351,
                0.0
              ],
              [
                106.6341209,
                10.7399992,
                0.0
              ],
              [
                106.6342926,
                10.7405262,
                0.0
              ],
              [
                106.634408,
                10.7407936,
                0.0
              ],
              [
                106.6323205,
                10.741427,
                0.0
              ],
              [
                106.6319275,
                10.7399551,
                0.0
              ],
              [
                106.631713,
                10.7383002,
                0.0
              ],
              [
                106.6292292,
                10.7392532,
                0.0
              ],
              [
                106.6287894,
                10.7378091,
                0.0
              ]
            ]
          ]
        }
      },
      {
        "type": "Feature",
        "properties": {
          "name": "Khu phố 11",
          "description": "Diện tích: 28,26 ha<br>Số hộ: 1.050 hộ<br>Gộp KP 21 và KP 22 (cũ)",
          "styleUrl": "#poly-9C27B0-3901-99"
        },
        "geometry": {
          "type": "Polygon",
          "coordinates": [
            [
              [
                106.6272963,
                10.7384002,
                0.0
              ],
              [
                106.6267277,
                10.7343102,
                0.0
              ],
              [
                106.627704,
                10.7345632,
                0.0
              ],
              [
                106.6329664,
                10.7329873,
                0.0
              ],
              [
                106.6338712,
                10.7334647,
                0.0
              ],
              [
                106.6343901,
                10.7337127,
                0.0
              ],
              [
                106.6343494,
                10.7342777,
                0.0
              ],
              [
                106.6343656,
                10.7345859,
                0.0
              ],
              [
                106.6344192,
                10.734802,
                0.0
              ],
              [
                106.6345426,
                10.7351762,
                0.0
              ],
              [
                106.6348171,
                10.735757,
                0.0
              ],
              [
                106.6337853,
                10.7359735,
                0.0
              ],
              [
                106.6272963,
                10.7384002,
                0.0
              ]
            ]
          ]
        }
      },
      {
        "type": "Feature",
        "properties": {
          "name": "Khu phố 12",
          "description": "Diện tích: 16,43 ha;<br>Số hộ: 1.029 hộ;<br>Gộp KP 23 và KP 24 (cũ)",
          "styleUrl": "#poly-F48FB1-5301-102"
        },
        "geometry": {
          "type": "Polygon",
          "coordinates": [
            [
              [
                106.6267277,
                10.7343102,
                0.0
              ],
              [
                106.6266618,
                10.7338057,
                0.0
              ],
              [
                106.6265438,
                10.7315552,
                0.0
              ],
              [
                106.6269086,
                10.7316975,
                0.0
              ],
              [
                106.627268,
                10.7317291,
                0.0
              ],
              [
                106.6276703,
                10.7316026,
                0.0
              ],
              [
                106.6277776,
                10.7314129,
                0.0
              ],
              [
                106.627738,
                10.7311271,
                0.0
              ],
              [
                106.6275396,
                10.7308214,
                0.0
              ],
              [
                106.6275095,
                10.7304249,
                0.0
              ],
              [
                106.6276388,
                10.730018,
                0.0
              ],
              [
                106.6294922,
                10.7309901,
                0.0
              ],
              [
                106.6323675,
                10.7326134,
                0.0
              ],
              [
                106.6329664,
                10.7329873,
                0.0
              ],
              [
                106.627704,
                10.7345632,
                0.0
              ],
              [
                106.6267277,
                10.7343102,
                0.0
              ]
            ]
          ]
        }
      },
      {
        "type": "Feature",
        "properties": {
          "name": "Khu phố 13",
          "description": "Diện tích: 37,06 ha;<br>Số hộ: 1.338 hộ;<br>Gộp KP 19 và KP 20 (cũ)",
          "styleUrl": "#poly-B2EBF2-5466-107"
        },
        "geometry": {
          "type": "Polygon",
          "coordinates": [
            [
              [
                106.6211182,
                10.7341338,
                0.0
              ],
              [
                106.621578,
                10.7341133,
                0.0
              ],
              [
                106.6219579,
                10.7344355,
                0.0
              ],
              [
                106.6221574,
                10.7346008,
                0.0
              ],
              [
                106.6226638,
                10.7349346,
                0.0
              ],
              [
                106.623197,
                10.7352367,
                0.0
              ],
              [
                106.6236584,
                10.7355899,
                0.0
              ],
              [
                106.6239374,
                10.7358533,
                0.0
              ],
              [
                106.6242388,
                10.7358447,
                0.0
              ],
              [
                106.6244319,
                10.7357393,
                0.0
              ],
              [
                106.6245596,
                10.7355582,
                0.0
              ],
              [
                106.6245811,
                10.7353474,
                0.0
              ],
              [
                106.6245811,
                10.7351155,
                0.0
              ],
              [
                106.6245382,
                10.7348625,
                0.0
              ],
              [
                106.6244748,
                10.7344665,
                0.0
              ],
              [
                106.6244523,
                10.7342089,
                0.0
              ],
              [
                106.624388,
                10.7338505,
                0.0
              ],
              [
                106.6243021,
                10.7333235,
                0.0
              ],
              [
                106.6243719,
                10.7319952,
                0.0
              ],
              [
                106.6243585,
                10.7314313,
                0.0
              ],
              [
                106.6257586,
                10.7314223,
                0.0
              ],
              [
                106.6265438,
                10.7315552,
                0.0
              ],
              [
                106.6267143,
                10.7343445,
                0.0
              ],
              [
                106.6272829,
                10.7384345,
                0.0
              ],
              [
                106.6253131,
                10.7391607,
                0.0
              ],
              [
                106.6222184,
                10.7387126,
                0.0
              ],
              [
                106.6219126,
                10.7376193,
                0.0
              ],
              [
                106.6216254,
                10.7364839,
                0.0
              ],
              [
                106.6214825,
                10.7359016,
                0.0
              ],
              [
                106.6213638,
                10.7353115,
                0.0
              ],
              [
                106.6211793,
                10.7346146,
                0.0
              ],
              [
                106.6211182,
                10.7341338,
                0.0
              ]
            ]
          ]
        }
      },
      {
        "type": "Feature",
        "properties": {
          "name": "Khu phố 14",
          "description": "Diện tích: 16,82 ha;<br>Số hộ: 1.250 hộ;<br>Gộp: KP 29 và 1p KP 28 (cũ)",
          "styleUrl": "#poly-FFEA00-6162-89"
        },
        "geometry": {
          "type": "Polygon",
          "coordinates": [
            [
              [
                106.6211354,
                10.7341397,
                0.0
              ],
              [
                106.621085,
                10.7337472,
                0.0
              ],
              [
                106.620976,
                10.7327533,
                0.0
              ],
              [
                106.620761,
                10.7311178,
                0.0
              ],
              [
                106.6215029,
                10.7310827,
                0.0
              ],
              [
                106.6230355,
                10.7310124,
                0.0
              ],
              [
                106.623014,
                10.7306909,
                0.0
              ],
              [
                106.6233536,
                10.7306347,
                0.0
              ],
              [
                106.6237329,
                10.7306276,
                0.0
              ],
              [
                106.6235887,
                10.7309216,
                0.0
              ],
              [
                106.6236638,
                10.7311798,
                0.0
              ],
              [
                106.6236852,
                10.7314486,
                0.0
              ],
              [
                106.6243585,
                10.7314313,
                0.0
              ],
              [
                106.6243746,
                10.7319952,
                0.0
              ],
              [
                106.6243048,
                10.7333235,
                0.0
              ],
              [
                106.6244533,
                10.7343715,
                0.0
              ],
              [
                106.6245816,
                10.73504,
                0.0
              ],
              [
                106.6245757,
                10.7355661,
                0.0
              ],
              [
                106.624448,
                10.7357472,
                0.0
              ],
              [
                106.6242549,
                10.7358526,
                0.0
              ],
              [
                106.6239535,
                10.7358612,
                0.0
              ],
              [
                106.6233483,
                10.7353624,
                0.0
              ],
              [
                106.6226321,
                10.7349117,
                0.0
              ],
              [
                106.62216,
                10.7346008,
                0.0
              ],
              [
                106.621578,
                10.7341133,
                0.0
              ],
              [
                106.6211354,
                10.7341397,
                0.0
              ]
            ]
          ]
        }
      },
      {
        "type": "Feature",
        "properties": {
          "name": "Khu phố 15",
          "description": "Diện tích: 15,41 ha;<br>Số hộ: 1.310 hộ;<br>Gộp KP 27 và 1p KP 28 (cũ)",
          "styleUrl": "#poly-F57C00-4101-107"
        },
        "geometry": {
          "type": "Polygon",
          "coordinates": [
            [
              [
                106.6207583,
                10.7310335,
                0.0
              ],
              [
                106.6203467,
                10.7273986,
                0.0
              ],
              [
                106.6201999,
                10.7264728,
                0.0
              ],
              [
                106.6247715,
                10.7289135,
                0.0
              ],
              [
                106.6237302,
                10.7305433,
                0.0
              ],
              [
                106.6232742,
                10.7305644,
                0.0
              ],
              [
                106.6230113,
                10.7306066,
                0.0
              ],
              [
                106.6230328,
                10.7309281,
                0.0
              ],
              [
                106.6207583,
                10.7310335,
                0.0
              ]
            ]
          ]
        }
      },
      {
        "type": "Feature",
        "properties": {
          "name": "Khu phố 16",
          "description": "Diện tích: 8,15 ha;<br>Số hộ: 1.656 hộ;<br>Gộp KP 25 và KP 26 (cũ)",
          "styleUrl": "#poly-FFCC80-5901-99"
        },
        "geometry": {
          "type": "Polygon",
          "coordinates": [
            [
              [
                106.6265438,
                10.7315552,
                0.0
              ],
              [
                106.6257586,
                10.7314223,
                0.0
              ],
              [
                106.6236825,
                10.7314486,
                0.0
              ],
              [
                106.6236611,
                10.7310955,
                0.0
              ],
              [
                106.623586,
                10.7308373,
                0.0
              ],
              [
                106.6236396,
                10.7306686,
                0.0
              ],
              [
                106.6247715,
                10.7289135,
                0.0
              ],
              [
                106.6275095,
                10.7304249,
                0.0
              ],
              [
                106.6275396,
                10.7308214,
                0.0
              ],
              [
                106.627738,
                10.7311271,
                0.0
              ],
              [
                106.6277776,
                10.7314129,
                0.0
              ],
              [
                106.6276703,
                10.7316026,
                0.0
              ],
              [
                106.627268,
                10.7317291,
                0.0
              ],
              [
                106.6268636,
                10.7317069,
                0.0
              ],
              [
                106.6265438,
                10.7315552,
                0.0
              ]
            ]
          ]
        }
      }
    ]
  }